{
    "links": {
        "self": "http://www.neowsapp.com/rest/v1/neo/54054407?api_key=iIulBulltgU6a56xZRHN4H3l9WmuAYTsLGpBGhQ2"
    },
    "id": "54054407",
    "neo_reference_id": "54054407",
    "name": "(2020 SC)",
    "designation": "2020 SC",
    "nasa_jpl_url": "http://ssd.jpl.nasa.gov/sbdb.cgi?sstr=54054407",
    "absolute_magnitude_h": 26.689,
    "estimated_diameter": {
        "kilometers": {
            "estimated_diameter_min": 0.0122111053,
            "estimated_diameter_max": 0.0273048615
        },
        "meters": {
            "estimated_diameter_min": 12.2111053084,
            "estimated_diameter_max": 27.3048615499
        },
        "miles": {
            "estimated_diameter_min": 0.0075876267,
            "estimated_diameter_max": 0.0169664491
        },
        "feet": {
            "estimated_diameter_min": 40.0626827399,
            "estimated_diameter_max": 89.5828819675
        }
    },
    "is_potentially_hazardous_asteroid": false,
    "close_approach_data": [
        {
            "close_approach_date": "2018-06-11",
            "close_approach_date_full": "2018-Jun-11 19:40",
            "epoch_date_close_approach": 1528746000000,
            "relative_velocity": {
                "kilometers_per_second": "23.7635521995",
                "kilometers_per_hour": "85548.787918043",
                "miles_per_hour": "53156.689914964"
            },
            "miss_distance": {
                "astronomical": "0.0719791132",
                "lunar": "27.9998750348",
                "kilometers": "10767922.019208884",
                "miles": "6690876.4826712392"
            },
            "orbiting_body": "Venus"
        },
        {
            "close_approach_date": "2020-09-15",
            "close_approach_date_full": "2020-Sep-15 13:35",
            "epoch_date_close_approach": 1600176900000,
            "relative_velocity": {
                "kilometers_per_second": "22.1839357352",
                "kilometers_per_hour": "79862.1686465425",
                "miles_per_hour": "49623.2458459586"
            },
            "miss_distance": {
                "astronomical": "0.0035236093",
                "lunar": "1.3706840177",
                "kilometers": "527124.445992191",
                "miles": "327539.9425105958"
            },
            "orbiting_body": "Moon"
        },
        {
            "close_approach_date": "2020-09-15",
            "close_approach_date_full": "2020-Sep-15 17:55",
            "epoch_date_close_approach": 1600192500000,
            "relative_velocity": {
                "kilometers_per_second": "21.8441609376",
                "kilometers_per_hour": "78638.9793753967",
                "miles_per_hour": "48863.2036013403"
            },
            "miss_distance": {
                "astronomical": "0.0032842261",
                "lunar": "1.2775639529",
                "kilometers": "491313.229158407",
                "miles": "305287.8842117366"
            },
            "orbiting_body": "Earth"
        },
        {
            "close_approach_date": "2022-09-29",
            "close_approach_date_full": "2022-Sep-29 05:08",
            "epoch_date_close_approach": 1664428080000,
            "relative_velocity": {
                "kilometers_per_second": "29.9422426694",
                "kilometers_per_hour": "107792.0736096827",
                "miles_per_hour": "66977.8026270831"
            },
            "miss_distance": {
                "astronomical": "0.2707301846",
                "lunar": "105.3140418094",
                "kilometers": "40500658.960866802",
                "miles": "25165942.5180217876"
            },
            "orbiting_body": "Earth"
        },
        {
            "close_approach_date": "2053-02-20",
            "close_approach_date_full": "2053-Feb-20 02:00",
            "epoch_date_close_approach": 2623629600000,
            "relative_velocity": {
                "kilometers_per_second": "22.5876626639",
                "kilometers_per_hour": "81315.585590036",
                "miles_per_hour": "50526.3426128754"
            },
            "miss_distance": {
                "astronomical": "0.0415377752",
                "lunar": "16.1581945528",
                "kilometers": "6213962.694458824",
                "miles": "3861177.3731628112"
            },
            "orbiting_body": "Earth"
        }
    ],
    "orbital_data": {
        "orbit_id": "4",
        "orbit_determination_date": "2020-09-20 06:39:33",
        "first_observation_date": "2020-09-17",
        "last_observation_date": "2020-09-20",
        "data_arc_in_days": 3,
        "observations_used": 70,
        "orbit_uncertainty": "8",
        "minimum_orbit_intersection": ".00309031",
        "jupiter_tisserand_invariant": "4.046",
        "epoch_osculation": "2459110.5",
        "eccentricity": ".6763063996657733",
        "semi_major_axis": "1.611071771870723",
        "inclination": "5.209276153387543",
        "ascending_node_longitude": "355.0346912455154",
        "orbital_period": "746.9142742741835",
        "perihelion_distance": ".5214936222336761",
        "perihelion_argument": "256.9146432401438",
        "aphelion_distance": "2.70064992150777",
        "perihelion_time": "2459058.370404938904",
        "mean_anomaly": "25.12557982672258",
        "mean_motion": ".481983023218871",
        "equinox": "J2000",
        "orbit_class": {
            "orbit_class_type": "APO",
            "orbit_class_description": "Near-Earth asteroid orbits which cross the Earth’s orbit similar to that of 1862 Apollo",
            "orbit_class_range": "a (semi-major axis) > 1.0 AU; q (perihelion) < 1.017 AU"
        }
    },
    "is_sentry_object": false
}